CCSDS_OMM_VERS = 2.0
CREATION_DATE  = 
ORIGINATOR     = 

OBJECT_NAME    = COSMOS 1933
OBJECT_ID      = 1988-020A
CENTER_NAME    = EARTH
REF_FRAME      = TEME
TIME_SYSTEM    = UTC
MEAN_ELEMENT_THEORY = SGP/SGP4

EPOCH          = 2026-01-31T03:30:34.820640
MEAN_MOTION    = 15.17649250
ECCENTRICITY   = .00040565
INCLINATION    = 82.5140
RA_OF_ASC_NODE = 288.0517
ARG_OF_PERICENTER = 356.3422
MEAN_ANOMALY   = 3.7782

EPHEMERIS_TYPE = 0
CLASSIFICATION_TYPE = U
NORAD_CAT_ID   = 18958
ELEMENT_SET_NO = 999
REV_AT_EPOCH   = 4453
BSTAR          = .19433029E-3
MEAN_MOTION_DOT = .3941E-4
MEAN_MOTION_DDOT = 0

CCSDS_OMM_VERS = 2.0
CREATION_DATE  = 
ORIGINATOR     = 

OBJECT_NAME    = SL-3 R/B
OBJECT_ID      = 1988-032B
CENTER_NAME    = EARTH
REF_FRAME      = TEME
TIME_SYSTEM    = UTC
MEAN_ELEMENT_THEORY = SGP/SGP4

EPOCH          = 2026-01-31T11:07:46.217568
MEAN_MOTION    = 15.19405744
ECCENTRICITY   = .0026536
INCLINATION    = 97.5129
RA_OF_ASC_NODE = 14.8769
ARG_OF_PERICENTER = 8.3048
MEAN_ANOMALY   = 351.8620

EPHEMERIS_TYPE = 0
CLASSIFICATION_TYPE = U
NORAD_CAT_ID   = 19046
ELEMENT_SET_NO = 999
REV_AT_EPOCH   = 4645
BSTAR          = .26835E-3
MEAN_MOTION_DOT = .5663E-4
MEAN_MOTION_DDOT = 0

CCSDS_OMM_VERS = 2.0
CREATION_DATE  = 
ORIGINATOR     = 

OBJECT_NAME    = SL-16 R/B
OBJECT_ID      = 1988-039B
CENTER_NAME    = EARTH
REF_FRAME      = TEME
TIME_SYSTEM    = UTC
MEAN_ELEMENT_THEORY = SGP/SGP4

EPOCH          = 2026-01-31T11:51:31.131648
MEAN_MOTION    = 14.19610199
ECCENTRICITY   = .0020533
INCLINATION    = 71.0151
RA_OF_ASC_NODE = 147.1988
ARG_OF_PERICENTER = 31.8806
MEAN_ANOMALY   = 328.3557

EPHEMERIS_TYPE = 0
CLASSIFICATION_TYPE = U
NORAD_CAT_ID   = 19120
ELEMENT_SET_NO = 999
REV_AT_EPOCH   = 95310
BSTAR          = .10613E-3
MEAN_MOTION_DOT = .177E-5
MEAN_MOTION_DDOT = 0

CCSDS_OMM_VERS = 2.0
CREATION_DATE  = 
ORIGINATOR     = 

OBJECT_NAME    = COSMOS 1953
OBJECT_ID      = 1988-050A
CENTER_NAME    = EARTH
REF_FRAME      = TEME
TIME_SYSTEM    = UTC
MEAN_ELEMENT_THEORY = SGP/SGP4

EPOCH          = 2026-01-31T11:56:55.720032
MEAN_MOTION    = 15.27741392
ECCENTRICITY   = .0010374
INCLINATION    = 82.5074
RA_OF_ASC_NODE = 195.6244
ARG_OF_PERICENTER = 254.3009
MEAN_ANOMALY   = 105.7086

EPHEMERIS_TYPE = 0
CLASSIFICATION_TYPE = U
NORAD_CAT_ID   = 19210
ELEMENT_SET_NO = 999
REV_AT_EPOCH   = 3210
BSTAR          = .3144E-3
MEAN_MOTION_DOT = .8564E-4
MEAN_MOTION_DDOT = 0

CCSDS_OMM_VERS = 2.0
CREATION_DATE  = 
ORIGINATOR     = 

OBJECT_NAME    = SL-8 R/B
OBJECT_ID      = 1988-053B
CENTER_NAME    = EARTH
REF_FRAME      = TEME
TIME_SYSTEM    = UTC
MEAN_ELEMENT_THEORY = SGP/SGP4

EPOCH          = 2026-01-31T11:01:24.566304
MEAN_MOTION    = 14.38892245
ECCENTRICITY   = .0020008
INCLINATION    = 74.0473
RA_OF_ASC_NODE = 181.0838
ARG_OF_PERICENTER = 7.7756
MEAN_ANOMALY   = 47.6334

EPHEMERIS_TYPE = 0
CLASSIFICATION_TYPE = U
NORAD_CAT_ID   = 19257
ELEMENT_SET_NO = 999
REV_AT_EPOCH   = 97124
BSTAR          = .96014E-4
MEAN_MOTION_DOT = .27E-5
MEAN_MOTION_DDOT = 0

CCSDS_OMM_VERS = 2.0
CREATION_DATE  = 
ORIGINATOR     = 

OBJECT_NAME    = COSMOS 1975
OBJECT_ID      = 1988-093A
CENTER_NAME    = EARTH
REF_FRAME      = TEME
TIME_SYSTEM    = UTC
MEAN_ELEMENT_THEORY = SGP/SGP4

EPOCH          = 2026-01-31T09:22:42.103776
MEAN_MOTION    = 15.27383815
ECCENTRICITY   = .0010593
INCLINATION    = 82.5224
RA_OF_ASC_NODE = 155.0950
ARG_OF_PERICENTER = 304.9326
MEAN_ANOMALY   = 55.0917

EPHEMERIS_TYPE = 0
CLASSIFICATION_TYPE = U
NORAD_CAT_ID   = 19573
ELEMENT_SET_NO = 999
REV_AT_EPOCH   = 1371
BSTAR          = .32496E-3
MEAN_MOTION_DOT = .8756E-4
MEAN_MOTION_DDOT = 0

CCSDS_OMM_VERS = 2.0
CREATION_DATE  = 
ORIGINATOR     = 

OBJECT_NAME    = SL-14 R/B
OBJECT_ID      = 1988-093B
CENTER_NAME    = EARTH
REF_FRAME      = TEME
TIME_SYSTEM    = UTC
MEAN_ELEMENT_THEORY = SGP/SGP4

EPOCH          = 2026-01-31T11:52:53.889024
MEAN_MOTION    = 14.85614538
ECCENTRICITY   = .0021295
INCLINATION    = 82.5286
RA_OF_ASC_NODE = 76.9700
ARG_OF_PERICENTER = 157.3278
MEAN_ANOMALY   = 326.1807

EPHEMERIS_TYPE = 0
CLASSIFICATION_TYPE = U
NORAD_CAT_ID   = 19574
ELEMENT_SET_NO = 999
REV_AT_EPOCH   = 99551
BSTAR          = .58217E-4
MEAN_MOTION_DOT = .53E-5
MEAN_MOTION_DDOT = 0

CCSDS_OMM_VERS = 2.0
CREATION_DATE  = 
ORIGINATOR     = 

OBJECT_NAME    = SL-16 R/B
OBJECT_ID      = 1988-102B
CENTER_NAME    = EARTH
REF_FRAME      = TEME
TIME_SYSTEM    = UTC
MEAN_ELEMENT_THEORY = SGP/SGP4

EPOCH          = 2026-01-30T23:22:24.727584
MEAN_MOTION    = 14.16146719
ECCENTRICITY   = .0012061
INCLINATION    = 70.9973
RA_OF_ASC_NODE = 230.8517
ARG_OF_PERICENTER = 64.2580
MEAN_ANOMALY   = 295.9787

EPHEMERIS_TYPE = 0
CLASSIFICATION_TYPE = U
NORAD_CAT_ID   = 19650
ELEMENT_SET_NO = 999
REV_AT_EPOCH   = 92155
BSTAR          = -.84389151E-4
MEAN_MOTION_DOT = -.215E-5
MEAN_MOTION_DDOT = 0

CCSDS_OMM_VERS = 2.0
CREATION_DATE  = 
ORIGINATOR     = 

OBJECT_NAME    = INTERCOSMOS 24
OBJECT_ID      = 1989-080A
CENTER_NAME    = EARTH
REF_FRAME      = TEME
TIME_SYSTEM    = UTC
MEAN_ELEMENT_THEORY = SGP/SGP4

EPOCH          = 2026-01-31T09:24:37.719072
MEAN_MOTION    = 12.59507417
ECCENTRICITY   = .1188505
INCLINATION    = 82.6075
RA_OF_ASC_NODE = 128.6762
ARG_OF_PERICENTER = 19.4064
MEAN_ANOMALY   = 344.8550

EPHEMERIS_TYPE = 0
CLASSIFICATION_TYPE = U
NORAD_CAT_ID   = 20261
ELEMENT_SET_NO = 999
REV_AT_EPOCH   = 66210
BSTAR          = .15024E-3
MEAN_MOTION_DOT = .529E-5
MEAN_MOTION_DDOT = 0

CCSDS_OMM_VERS = 2.0
CREATION_DATE  = 
ORIGINATOR     = 

OBJECT_NAME    = SL-14 R/B
OBJECT_ID      = 1989-080C
CENTER_NAME    = EARTH
REF_FRAME      = TEME
TIME_SYSTEM    = UTC
MEAN_ELEMENT_THEORY = SGP/SGP4

EPOCH          = 2026-01-31T10:16:27.147072
MEAN_MOTION    = 12.50450743
ECCENTRICITY   = .122943
INCLINATION    = 82.5933
RA_OF_ASC_NODE = 197.1089
ARG_OF_PERICENTER = 269.9737
MEAN_ANOMALY   = 76.0824

EPHEMERIS_TYPE = 0
CLASSIFICATION_TYPE = U
NORAD_CAT_ID   = 20262
ELEMENT_SET_NO = 999
REV_AT_EPOCH   = 65549
BSTAR          = .10496E-3
MEAN_MOTION_DOT = .346E-5
MEAN_MOTION_DDOT = 0

CCSDS_OMM_VERS = 2.0
CREATION_DATE  = 
ORIGINATOR     = 

OBJECT_NAME    = DELTA 1 R/B
OBJECT_ID      = 1989-089B
CENTER_NAME    = EARTH
REF_FRAME      = TEME
TIME_SYSTEM    = UTC
MEAN_ELEMENT_THEORY = SGP/SGP4

EPOCH          = 2026-01-31T12:16:09.008832
MEAN_MOTION    = 14.50629220
ECCENTRICITY   = .0067761
INCLINATION    = 97.0731
RA_OF_ASC_NODE = 244.8563
ARG_OF_PERICENTER = 239.6363
MEAN_ANOMALY   = 119.8124

EPHEMERIS_TYPE = 0
CLASSIFICATION_TYPE = U
NORAD_CAT_ID   = 20323
ELEMENT_SET_NO = 999
REV_AT_EPOCH   = 89034
BSTAR          = .13103E-3
MEAN_MOTION_DOT = .493E-5
MEAN_MOTION_DDOT = 0

CCSDS_OMM_VERS = 2.0
CREATION_DATE  = 
ORIGINATOR     = 

OBJECT_NAME    = ARIANE 40 R/B
OBJECT_ID      = 1990-005H
CENTER_NAME    = EARTH
REF_FRAME      = TEME
TIME_SYSTEM    = UTC
MEAN_ELEMENT_THEORY = SGP/SGP4

EPOCH          = 2026-01-31T03:34:37.292736
MEAN_MOTION    = 14.39843712
ECCENTRICITY   = .00092898
INCLINATION    = 98.3163
RA_OF_ASC_NODE = 92.9137
ARG_OF_PERICENTER = 322.7854
MEAN_ANOMALY   = 37.2690

EPHEMERIS_TYPE = 0
CLASSIFICATION_TYPE = U
NORAD_CAT_ID   = 20443
ELEMENT_SET_NO = 999
REV_AT_EPOCH   = 88740
BSTAR          = .12546745E-3
MEAN_MOTION_DOT = .352E-5
MEAN_MOTION_DDOT = 0

