COSMOS 1933             
1 18958U 88020A   26031.14623635  .00003941  00000+0  19433-3 0  9990
2 18958  82.5140 288.0517 0004056 356.3422   3.7782 15.17649250 44537
SL-3 R/B                
1 19046U 88032B   26031.46372937  .00005663  00000+0  26835-3 0  9990
2 19046  97.5129  14.8769 0026536   8.3048 351.8620 15.19405744 46459
SL-16 R/B               
1 19120U 88039B   26031.49411032  .00000177  00000+0  10613-3 0  9995
2 19120  71.0151 147.1988 0020533  31.8806 328.3557 14.19610199953109
COSMOS 1953             
1 19210U 88050A   26031.49786713  .00008564  00000+0  31440-3 0  9998
2 19210  82.5074 195.6244 0010374 254.3009 105.7086 15.27741392 32104
SL-8 R/B                
1 19257U 88053B   26031.45931211  .00000270  00000+0  96014-4 0  9998
2 19257  74.0473 181.0838 0020008   7.7756  47.6334 14.38892245971248
COSMOS 1975             
1 19573U 88093A   26031.39076509  .00008756  00000+0  32496-3 0  9996
2 19573  82.5224 155.0950 0010593 304.9326  55.0917 15.27383815 13712
SL-14 R/B               
1 19574U 88093B   26031.49506816  .00000530  00000+0  58217-4 0  9999
2 19574  82.5286  76.9700 0021295 157.3278 326.1807 14.85614538995511
SL-16 R/B               
1 19650U 88102B   26030.97389731 -.00000215  00000+0 -84389-4 0  9993
2 19650  70.9973 230.8517 0012061  64.2580 295.9787 14.16146719921558
INTERCOSMOS 24          
1 20261U 89080A   26031.39210323  .00000529  00000+0  15024-3 0  9991
2 20261  82.6075 128.6762 1188505  19.4064 344.8550 12.59507417662100
SL-14 R/B               
1 20262U 89080C   26031.42809198  .00000346  00000+0  10496-3 0  9995
2 20262  82.5933 197.1089 1229430 269.9737  76.0824 12.50450743655490
DELTA 1 R/B             
1 20323U 89089B   26031.51121538  .00000493  00000+0  13103-3 0  9998
2 20323  97.0731 244.8563 0067761 239.6363 119.8124 14.50629220890341
ARIANE 40 R/B           
1 20443U 90005H   26031.14904274  .00000352  00000+0  12547-3 0  9991
2 20443  98.3163  92.9137 0009289 322.7854  37.2690 14.39843712887401
